raan_deg,tle1,tle2,plane_id
354.0623,1 62365U 24245A   25283.24804708  .00000250  00000-0  25951-3 0  9994,2 62365  44.9843 354.0623 0009046 267.6882  92.2915 13.99084852 41357,5
